[{"OBJECT_NAME":"STARLINK-3628","OBJECT_ID":"2022-017R","EPOCH":"2026-03-09T21:59:21.071904","MEAN_MOTION":15.08833646,"ECCENTRICITY":0.00015326,"INCLINATION":53.2201,"RA_OF_ASC_NODE":338.1594,"ARG_OF_PERICENTER":112.9862,"MEAN_ANOMALY":247.1292,"EPHEMERIS_TYPE":0,"CLASSIFICATION_TYPE":"U","NORAD_CAT_ID":51783,"ELEMENT_SET_NO":999,"REV_AT_EPOCH":22245,"BSTAR":1.1184792e-5,"MEAN_MOTION_DOT":-1.1e-6,"MEAN_MOTION_DDOT":0},{"OBJECT_NAME":"CZ-6A DEB","OBJECT_ID":"2022-151LV","EPOCH":"2026-03-09T17:28:26.716800","MEAN_MOTION":14.98158937,"ECCENTRICITY":0.00445354,"INCLINATION":98.6404,"RA_OF_ASC_NODE":145.743,"ARG_OF_PERICENTER":190.094,"MEAN_ANOMALY":169.939,"EPHEMERIS_TYPE":0,"CLASSIFICATION_TYPE":"U","NORAD_CAT_ID":54569,"ELEMENT_SET_NO":999,"REV_AT_EPOCH":17656,"BSTAR":0.0053350459,"MEAN_MOTION_DOT":0.00065033,"MEAN_MOTION_DDOT":0}]
